start=new Date('2022-04-26T00:00:00.000Z').valueOf();
sats=[{"OBJECT_ID":"2020-006S","NORAD_CAT_ID":"45060","REV_AT_EPOCH":"12336","SEMIMAJOR_AXIS":"6925.346","PERIOD":"95.592","REF_FRAME":"TEME","INCLINATION":"53.0529","ARG_OF_PERICENTER":"44.7213","EPOCH":"2022-04-25T20:08:48.873984","BSTAR":"0.00023991000000","LAUNCH_DATE":"2020-01-29","ELEMENT_SET_NO":"999","ECCENTRICITY":"0.00020450","MEAN_ELEMENT_THEORY":"SGP4","COUNTRY_CODE":"US","MEAN_MOTION_DDOT":"0.0000000000000","EPHEMERIS_TYPE":"0","OBJECT_TYPE":"PAYLOAD","APOAPSIS":"548.627","FILE":"3416090","SITE":"AFETR","CLASSIFICATION_TYPE":"U","MEAN_MOTION":"15.06400869","OBJECT_NAME":"STARLINK-1166","MEAN_ANOMALY":"315.3940","TLE_LINE1":"1 45060U 20006S   22115.83945456  .00003294  00000-0  23991-3 0  9993","DECAY_DATE":null,"CENTER_NAME":"EARTH","TIME_SYSTEM":"UTC","MEAN_MOTION_DOT":"0.00003294","TLE_LINE2":"2 45060  53.0529 153.6405 0002045  44.7213 315.3940 15.06400869123366","GP_ID":"202024576","RA_OF_ASC_NODE":"153.6405","PERIAPSIS":"545.795","RCS_SIZE":"LARGE"},{"NORAD_CAT_ID":"45061","OBJECT_ID":"2020-006T","SEMIMAJOR_AXIS":"6925.351","REV_AT_EPOCH":"12331","PERIOD":"95.592","ARG_OF_PERICENTER":"54.2910","INCLINATION":"53.0531","REF_FRAME":"TEME","LAUNCH_DATE":"2020-01-29","BSTAR":"0.00002213700000","EPOCH":"2022-04-25T12:21:43.949664","ECCENTRICITY":"0.00018820","ELEMENT_SET_NO":"999","COUNTRY_CODE":"US","MEAN_ELEMENT_THEORY":"SGP4","MEAN_MOTION_DDOT":"0.0000000000000","OBJECT_TYPE":"PAYLOAD","EPHEMERIS_TYPE":"0","APOAPSIS":"548.519","MEAN_MOTION":"15.06399203","CLASSIFICATION_TYPE":"U","FILE":"3416090","SITE":"AFETR","TLE_LINE1":"1 45061U 20006T   22115.51509201  .00000048  00000-0  22137-4 0  9999","OBJECT_NAME":"STARLINK-1169","MEAN_ANOMALY":"305.8254","TIME_SYSTEM":"UTC","MEAN_MOTION_DOT":"0.00000048","CENTER_NAME":"EARTH","DECAY_DATE":null,"PERIAPSIS":"545.913","RA_OF_ASC_NODE":"155.1041","TLE_LINE2":"2 45061  53.0531 155.1041 0001882  54.2910 305.8254 15.06399203123317","GP_ID":"202024826","RCS_SIZE":"LARGE"},{"NORAD_CAT_ID":"45062","OBJECT_ID":"2020-006U","SEMIMAJOR_AXIS":"6925.390","REV_AT_EPOCH":"12331","PERIOD":"95.593","INCLINATION":"53.0540","ARG_OF_PERICENTER":"51.7574","REF_FRAME":"TEME","LAUNCH_DATE":"2020-01-29","BSTAR":"0.00009381300000","EPOCH":"2022-04-25T12:00:30.349728","ECCENTRICITY":"0.00016280","ELEMENT_SET_NO":"999","COUNTRY_CODE":"US","MEAN_ELEMENT_THEORY":"SGP4","MEAN_MOTION_DDOT":"0.0000000000000","OBJECT_TYPE":"PAYLOAD","EPHEMERIS_TYPE":"0","APOAPSIS":"548.383","MEAN_MOTION":"15.06386369","CLASSIFICATION_TYPE":"U","FILE":"3415659","SITE":"AFETR","TLE_LINE1":"1 45062U 20006U   22115.50035127  .00001116  00000-0  93813-4 0  9996","MEAN_ANOMALY":"308.3561","OBJECT_NAME":"STARLINK-1171","MEAN_MOTION_DOT":"0.00001116","TIME_SYSTEM":"UTC","CENTER_NAME":"EARTH","DECAY_DATE":null,"PERIAPSIS":"546.128","RA_OF_ASC_NODE":"155.1567","TLE_LINE2":"2 45062  53.0540 155.1567 0001628  51.7574 308.3561 15.06386369123315","GP_ID":"201992098","RCS_SIZE":"LARGE"},{"NORAD_CAT_ID":"45064","OBJECT_ID":"2020-006W","SEMIMAJOR_AXIS":"6925.342","REV_AT_EPOCH":"12363","PERIOD":"95.592","REF_FRAME":"TEME","ARG_OF_PERICENTER":"54.6017","INCLINATION":"53.0549","LAUNCH_DATE":"2020-01-29","BSTAR":"0.00021501000000","EPOCH":"2022-04-25T18:41:14.233344","ECCENTRICITY":"0.00016960","ELEMENT_SET_NO":"999","COUNTRY_CODE":"US","MEAN_ELEMENT_THEORY":"SGP4","MEAN_MOTION_DDOT":"0.0000000000000","OBJECT_TYPE":"PAYLOAD","EPHEMERIS_TYPE":"0","APOAPSIS":"548.381","MEAN_MOTION":"15.06402184","FILE":"3416090","SITE":"AFETR","CLASSIFICATION_TYPE":"U","TLE_LINE1":"1 45064U 20006W   22115.77863696  .00002923  00000-0  21501-3 0  9998","OBJECT_NAME":"STARLINK-1133","MEAN_ANOMALY":"305.5130","CENTER_NAME":"EARTH","MEAN_MOTION_DOT":"0.00002923","TIME_SYSTEM":"UTC","DECAY_DATE":null,"RA_OF_ASC_NODE":"133.9161","PERIAPSIS":"546.032","TLE_LINE2":"2 45064  53.0549 133.9161 0001696  54.6017 305.5130 15.06402184123639","GP_ID":"202025823","RCS_SIZE":"LARGE"},{"BSTAR":"0.00008839600000","LAUNCH_DATE":"2020-01-29","EPOCH":"2022-04-25T18:46:32.460096","ECCENTRICITY":"0.00017730","ELEMENT_SET_NO":"999","COUNTRY_CODE":"US","MEAN_ELEMENT_THEORY":"SGP4","MEAN_MOTION_DDOT":"0.0000000000000","NORAD_CAT_ID":"45065","OBJECT_ID":"2020-006X","SEMIMAJOR_AXIS":"6925.359","REV_AT_EPOCH":"12363","PERIOD":"95.592","REF_FRAME":"TEME","INCLINATION":"53.0535","ARG_OF_PERICENTER":"55.7518","TLE_LINE1":"1 45065U 20006X   22115.78232014  .00001035  00000-0  88396-4 0  9993","OBJECT_NAME":"STARLINK-1139","MEAN_ANOMALY":"304.3639","CENTER_NAME":"EARTH","MEAN_MOTION_DOT":"0.00001035","TIME_SYSTEM":"UTC","DECAY_DATE":null,"RA_OF_ASC_NODE":"133.9005","PERIAPSIS":"545.996","TLE_LINE2":"2 45065  53.0535 133.9005 0001773  55.7518 304.3639 15.06396657123634","GP_ID":"202024076","RCS_SIZE":"LARGE","OBJECT_TYPE":"PAYLOAD","EPHEMERIS_TYPE":"0","APOAPSIS":"548.452","MEAN_MOTION":"15.06396657","SITE":"AFETR","FILE":"3416090","CLASSIFICATION_TYPE":"U"},{"REF_FRAME":"TEME","INCLINATION":"53.0527","ARG_OF_PERICENTER":"50.5271","PERIOD":"95.593","REV_AT_EPOCH":"12362","SEMIMAJOR_AXIS":"6925.380","OBJECT_ID":"2020-006Y","NORAD_CAT_ID":"45066","MEAN_MOTION_DDOT":"0.0000000000000","MEAN_ELEMENT_THEORY":"SGP4","COUNTRY_CODE":"US","ELEMENT_SET_NO":"999","ECCENTRICITY":"0.00016890","EPOCH":"2022-04-25T18:09:24.274944","BSTAR":"0.00008716700000","LAUNCH_DATE":"2020-01-29","SITE":"AFETR","FILE":"3416090","CLASSIFICATION_TYPE":"U","MEAN_MOTION":"15.06389588","APOAPSIS":"548.415","EPHEMERIS_TYPE":"0","OBJECT_TYPE":"PAYLOAD","RCS_SIZE":"LARGE","GP_ID":"202024326","TLE_LINE2":"2 45066  53.0527 134.0154 0001689  50.5271 309.5867 15.06389588123622","RA_OF_ASC_NODE":"134.0154","PERIAPSIS":"546.076","DECAY_DATE":null,"CENTER_NAME":"EARTH","TIME_SYSTEM":"UTC","MEAN_MOTION_DOT":"0.00001017","MEAN_ANOMALY":"309.5867","OBJECT_NAME":"STARLINK-1145","TLE_LINE1":"1 45066U 20006Y   22115.75653096  .00001017  00000-0  87167-4 0  9993"},{"OBJECT_NAME":"STARLINK-1150","MEAN_ANOMALY":"306.9499","TLE_LINE1":"1 45067U 20006Z   22115.77125632  .00002374  00000-0  17820-3 0  9991","DECAY_DATE":null,"CENTER_NAME":"EARTH","MEAN_MOTION_DOT":"0.00002374","TIME_SYSTEM":"UTC","GP_ID":"202025073","TLE_LINE2":"2 45067  53.0548 133.9315 0001715  53.1647 306.9499 15.06404330123635","RA_OF_ASC_NODE":"133.9315","PERIAPSIS":"546.013","RCS_SIZE":"LARGE","EPHEMERIS_TYPE":"0","OBJECT_TYPE":"PAYLOAD","APOAPSIS":"548.388","FILE":"3416090","SITE":"AFETR","CLASSIFICATION_TYPE":"U","MEAN_MOTION":"15.06404330","EPOCH":"2022-04-25T18:30:36.546048","BSTAR":"0.00017820000000","LAUNCH_DATE":"2020-01-29","ELEMENT_SET_NO":"999","ECCENTRICITY":"0.00017150","MEAN_ELEMENT_THEORY":"SGP4","COUNTRY_CODE":"US","MEAN_MOTION_DDOT":"0.0000000000000","OBJECT_ID":"2020-006Z","NORAD_CAT_ID":"45067","REV_AT_EPOCH":"12363","SEMIMAJOR_AXIS":"6925.335","PERIOD":"95.592","REF_FRAME":"TEME","ARG_OF_PERICENTER":"53.1647","INCLINATION":"53.0548"},{"ECCENTRICITY":"0.00016920","ELEMENT_SET_NO":"999","LAUNCH_DATE":"2020-01-29","BSTAR":"0.00000805050000","EPOCH":"2022-04-25T17:52:06.375072","MEAN_MOTION_DDOT":"0.0000000000000","COUNTRY_CODE":"US","MEAN_ELEMENT_THEORY":"SGP4","SEMIMAJOR_AXIS":"6925.355","REV_AT_EPOCH":"12362","NORAD_CAT_ID":"45068","OBJECT_ID":"2020-006AA","REF_FRAME":"TEME","ARG_OF_PERICENTER":"66.9663","INCLINATION":"53.0579","PERIOD":"95.592","CENTER_NAME":"EARTH","TIME_SYSTEM":"UTC","MEAN_MOTION_DOT":"-0.00000162","DECAY_DATE":null,"TLE_LINE1":"1 45068U 20006AA  22115.74451823 -.00000162  00000-0  80505-5 0  9999","OBJECT_NAME":"STARLINK-1161","MEAN_ANOMALY":"293.1505","RCS_SIZE":"LARGE","RA_OF_ASC_NODE":"133.9171","PERIAPSIS":"546.048","GP_ID":"202025323","TLE_LINE2":"2 45068  53.0579 133.9171 0001692  66.9663 293.1505 15.06397851123627","OBJECT_TYPE":"PAYLOAD","EPHEMERIS_TYPE":"0","MEAN_MOTION":"15.06397851","SITE":"AFETR","FILE":"3416090","CLASSIFICATION_TYPE":"U","APOAPSIS":"548.392"},{"RCS_SIZE":"LARGE","GP_ID":"202024577","TLE_LINE2":"2 45071  53.0543 134.1040 0001690  53.1061 307.0083 15.06390358123629","PERIAPSIS":"546.073","RA_OF_ASC_NODE":"134.1040","DECAY_DATE":null,"TIME_SYSTEM":"UTC","MEAN_MOTION_DOT":"0.00000927","CENTER_NAME":"EARTH","MEAN_ANOMALY":"307.0083","OBJECT_NAME":"STARLINK-1167","TLE_LINE1":"1 45071U 20006AD  22115.73809349  .00000927  00000-0  81155-4 0  9991","CLASSIFICATION_TYPE":"U","SITE":"AFETR","FILE":"3416090","MEAN_MOTION":"15.06390358","APOAPSIS":"548.413","EPHEMERIS_TYPE":"0","OBJECT_TYPE":"PAYLOAD","MEAN_MOTION_DDOT":"0.0000000000000","MEAN_ELEMENT_THEORY":"SGP4","COUNTRY_CODE":"US","ELEMENT_SET_NO":"999","ECCENTRICITY":"0.00016900","EPOCH":"2022-04-25T17:42:51.277536","BSTAR":"0.00008115500000","LAUNCH_DATE":"2020-01-29","INCLINATION":"53.0543","ARG_OF_PERICENTER":"53.1061","REF_FRAME":"TEME","PERIOD":"95.593","REV_AT_EPOCH":"12362","SEMIMAJOR_AXIS":"6925.378","OBJECT_ID":"2020-006AD","NORAD_CAT_ID":"45071"},{"REV_AT_EPOCH":"12362","SEMIMAJOR_AXIS":"6925.362","OBJECT_ID":"2020-006AE","NORAD_CAT_ID":"45072","ARG_OF_PERICENTER":"45.9127","INCLINATION":"53.0547","REF_FRAME":"TEME","PERIOD":"95.592","ELEMENT_SET_NO":"999","ECCENTRICITY":"0.00020740","EPOCH":"2022-04-25T17:48:09.464544","BSTAR":"0.00009544900000","LAUNCH_DATE":"2020-01-29","MEAN_MOTION_DDOT":"0.0000000000000","MEAN_ELEMENT_THEORY":"SGP4","COUNTRY_CODE":"US","EPHEMERIS_TYPE":"0","OBJECT_TYPE":"PAYLOAD","CLASSIFICATION_TYPE":"U","FILE":"3416090","SITE":"AFETR","MEAN_MOTION":"15.06395467","APOAPSIS":"548.664","DECAY_DATE":null,"MEAN_MOTION_DOT":"0.00001140","TIME_SYSTEM":"UTC","CENTER_NAME":"EARTH","OBJECT_NAME":"STARLINK-1168","MEAN_ANOMALY":"314.2033","TLE_LINE1":"1 45072U 20006AE  22115.74177621  .00001140  00000-0  95449-4 0  9993","RCS_SIZE":"LARGE","TLE_LINE2":"2 45072  53.0547 134.0775 0002074  45.9127 314.2033 15.06395467123628","GP_ID":"202024827","PERIAPSIS":"545.791","RA_OF_ASC_NODE":"134.0775"}];
